{"spkid": "50836186", "covariance": {"epoch": "2458835.5", "labels": ["e", "q", "tp", "node", "peri", "i"], "elements": [{"label": "e", "title": "eccentricity", "value": ".3099331913776039", "units": null, "sigma": 2.68696837092088e-07, "name": "e"}, {"label": "q", "name": "q", "sigma": 3.12542699697749e-07, "title": "perihelion distance", "value": ".7990449164550805", "units": "au"}, {"sigma": 1.65907683986664e-05, "name": "tp", "value": "2458808.614962498307", "title": "time of perihelion passage", "units": "TDB", "label": "tp"}, {"label": "node", "sigma": 5.93277926372697e-06, "name": "om", "units": "deg", "title": "longitude of the ascending node", "value": "226.4294052929589"}, {"sigma": 3.53533378274112e-05, "name": "w", "title": "argument of perihelion", "value": "83.05106546373257", "units": "deg", "label": "peri"}, {"name": "i", "sigma": 1.44691560323217e-05, "title": "inclination", "value": "15.40631335878462", "units": "deg", "label": "i"}], "data": [["7.219799026329215E-14", "-8.397837426493357E-14", "2.83482017674579E-13", "4.062649436303076E-13", "-8.609968176166136E-12", "2.701825952211182E-12"], ["-8.397837426493357E-14", "9.768293913435749E-14", "-3.182850916618159E-13", "-4.743220426918532E-13", "1.002506139519696E-11", "-3.148606137905535E-12"], ["2.83482017674579E-13", "-3.182850916618159E-13", "2.75253596058189E-10", "-1.748019414925528E-11", "1.969535601199448E-10", "-1.036258344884523E-10"], ["4.062649436303076E-13", "-4.743220426918532E-13", "-1.748019414925528E-11", "3.51978697921087E-11", "-9.407609364199859E-11", "5.088169497113706E-11"], ["-8.609968176166136E-12", "1.002506139519696E-11", "1.969535601199448E-10", "-9.407609364199859E-11", "1.249858495539065E-9", "-4.445247355384768E-10"], ["2.701825952211182E-12", "-3.148606137905535E-12", "-1.036258344884523E-10", "5.088169497113706E-11", "-4.445247355384768E-10", "2.093564762876719E-10"]]}, "elements": [{"sigma": "2.6917E-7", "name": "e", "value": ".3101032457720501", "title": "eccentricity", "units": null, "label": "e"}, {"name": "a", "sigma": "2.287E-9", "units": "au", "title": "semi-major axis", "value": "1.15800239424499", "label": "a"}, {"sigma": "3.1245E-7", "name": "q", "value": ".7989020931778138", "title": "perihelion distance", "units": "au", "label": "q"}, {"label": "i", "units": "deg", "title": "inclination; angle with respect to x-y ecliptic plane", "value": "15.40727595231429", "name": "i", "sigma": "1.4462E-5"}, {"label": "node", "sigma": "5.9559E-6", "name": "om", "title": "longitude of the ascending node", "value": "226.3775017883404", "units": "deg"}, {"value": "83.09434320674106", "title": "argument of perihelion", "units": "deg", "name": "w", "sigma": "3.5376E-5", "label": "peri"}, {"label": "M", "sigma": "1.6632E-5", "name": "ma", "units": "deg", "title": "mean anomaly", "value": "91.97010274408655"}, {"label": "tp", "name": "tp", "sigma": "2.0789E-5", "value": "2461084.219528595190", "title": "time of perihelion passage", "units": "TDB"}, {"label": "period", "title": "sidereal orbital period", "value": "455.1584532009575", "units": "d", "name": "per", "sigma": "1.3484E-6"}, {"label": "n", "value": ".7909333496241935", "title": "mean motion", "units": "deg/d", "sigma": "2.3431E-9", "name": "n"}, {"units": "au", "title": "aphelion distance", "value": "1.517102695312167", "sigma": "2.9963E-9", "name": "ad", "label": "Q"}], "epoch": "2461200.5"}